STARLINK-31764          
1 59653U 24082Y   26068.22930562 -.00002381  00000+0 -77020-4 0  9990
2 59653  42.9998 142.2225 0000859 256.2359 103.8397 15.27582221104947
TROLL                   
1 62658U 25009BB  26068.22522958  .00013174  00000+0  48220-3 0  9994
2 62658  97.3932 150.7169 0001816  59.1850 300.9568 15.28164315118170
